[{"OBJECT_NAME":"PROBA-1","OBJECT_ID":"2001-049B","EPOCH":"2026-03-09T22:57:25.772256","MEAN_MOTION":15.07031721,"ECCENTRICITY":0.00568356,"INCLINATION":97.9638,"RA_OF_ASC_NODE":74.0417,"ARG_OF_PERICENTER":98.1776,"MEAN_ANOMALY":262.5903,"EPHEMERIS_TYPE":0,"CLASSIFICATION_TYPE":"U","NORAD_CAT_ID":26958,"ELEMENT_SET_NO":999,"REV_AT_EPOCH":32867,"BSTAR":0.00028513173,"MEAN_MOTION_DOT":4.362e-5,"MEAN_MOTION_DDOT":0},{"OBJECT_NAME":"STARLINK-3711","OBJECT_ID":"2022-029AV","EPOCH":"2026-03-09T23:28:15.759552","MEAN_MOTION":15.14150134,"ECCENTRICITY":6.042e-5,"INCLINATION":53.2142,"RA_OF_ASC_NODE":66.1332,"ARG_OF_PERICENTER":49.6209,"MEAN_ANOMALY":310.4839,"EPHEMERIS_TYPE":0,"CLASSIFICATION_TYPE":"U","NORAD_CAT_ID":52131,"ELEMENT_SET_NO":999,"REV_AT_EPOCH":22100,"BSTAR":0.0018381126,"MEAN_MOTION_DOT":0.00033758,"MEAN_MOTION_DDOT":0}]
